NORAD_CAT_ID,OBJECT_NAME,OBJECT_TYPE,EPOCH,MEAN_MOTION,ECCENTRICITY,INCLINATION,RA_OF_ASC_NODE,ARG_OF_PERICENTER,MEAN_ANOMALY,BSTAR,MEAN_MOTION_DOT,MEAN_MOTION_DDOT,TLE_LINE0,TLE_LINE1,TLE_LINE2,SEMIMAJOR_AXIS,PERIOD,APOGEE,PERIGEE,DECAYED
54773.0,STARLINK-5453,PAYLOAD,2023-01-18 18:00:00,15.45380299,0.0001205999999999,53.2139,150.1423,74.8796,38.7709,-0.025955,-0.01150972,0.0,0 STARLINK-5453,1 54773U 22175R   23018.75001157 -.01150972  00000-0 -25955-1 0  9997,2 54773  53.2139 150.1423 0001206  74.8796  38.7709 15.45380299  4731,6808.398,93.181,431.084,429.442,0.0
54773.0,STARLINK-5453,PAYLOAD,2023-01-18 22:00:00,15.45009362,0.0001012,53.2134,149.3507,82.2503,239.0156,-0.028656,-0.01245052,0.0,0 STARLINK-5453,1 54773U 22175R   23018.91667824 -.01245052  00000-0 -28656-1 0  9999,2 54773  53.2134 149.3507 0001012  82.2503 239.0156 15.45009362  1304,6809.488,93.203,432.042,430.663,0.0
54773.0,STARLINK-5453,PAYLOAD,2023-01-19 06:00:00,15.4409845,0.0001022999999999,53.2137,147.7687,90.3009,285.4783,-0.0272779999999999,-0.01156972,0.0,0 STARLINK-5453,1 54773U 22175R   23019.25001157 -.01156972  00000-0 -27278-1 0  9999,2 54773  53.2137 147.7687 0001023  90.3009 285.4783 15.44098450  4816,6812.165,93.258,434.727,433.334,0.0
54773.0,STARLINK-5453,PAYLOAD,2023-01-19 14:00:01,15.432603599999998,0.0001082,53.214,146.1922,75.6655,353.5746,-0.0292589999999999,-0.01201712,0.0,0 STARLINK-5453,1 54773U 22175R   23019.58334491 -.01201712  00000-0 -29259-1 0  9999,2 54773  53.2140 146.1922 0001082  75.6655 353.5746 15.43260360  1300,6814.630999999999,93.309,437.234,435.759,0.0
54773.0,STARLINK-5453,PAYLOAD,2023-01-19 22:00:00,15.42440933,0.0001189999999999,53.214,144.6159,69.4243,52.2347,-0.03147,-0.0125201,0.0,0 STARLINK-5453,1 54773U 22175R   23019.91667824 -.01252010  00000-0 -31470-1 0  9990,2 54773  53.2140 144.6159 0001190  69.4243  52.2347 15.42440933  4914,6817.045,93.359,439.721,438.099,0.0
54773.0,STARLINK-5453,PAYLOAD,2023-01-20 14:00:01,15.40679761,0.0001357,53.2148,141.4697,81.0723,142.3836,-0.031391,-0.01183777,0.0,0 STARLINK-5453,1 54773U 22175R   23020.58334491 -.01183777  00000-0 -31391-1 0  9991,2 54773  53.2148 141.4697 0001357  81.0723 142.3836 15.40679761  5019,6822.2390000000005,93.465,445.03,443.17800000000005,0.0
54773.0,STARLINK-5453,PAYLOAD,2023-01-20 16:00:00,15.40458319,0.0001164,53.215,141.0773,77.9123,247.9748,-0.031056,-0.01164322,0.0,0 STARLINK-5453,1 54773U 22175R   23020.66667824 -.01164322  00000-0 -31056-1 0  9992,2 54773  53.2150 141.0773 0001164  77.9123 247.9748 15.40458319  1303,6822.893,93.479,445.552,443.963,0.0
54773.0,STARLINK-5453,PAYLOAD,2023-01-21 08:00:01,15.38791566,0.0001155,53.2157,137.9384,89.8313,333.245,-0.034825,-0.0122892,0.0,0 STARLINK-5453,1 54773U 22175R   23021.33335648 -.01228920  00000-0 -34825-1 0  9995,2 54773  53.2157 137.9384 0001155  89.8313 333.2450 15.38791566  5130,6827.819,93.58,450.472,448.895,0.0
54773.0,STARLINK-5453,PAYLOAD,2023-01-22 16:00:00,15.35313205,0.0001388,53.2162,131.6909,82.3884,162.569,-0.036452,-0.01155553,0.0,0 STARLINK-5453,1 54773U 22175R   23022.66667824 -.01155553  00000-0 -36452-1 0  9995,2 54773  53.2162 131.6909 0001388  82.3884 162.5690 15.35313205  5348,6838.127,93.792,460.941,459.043,0.0
54773.0,STARLINK-5453,PAYLOAD,2023-01-23 08:00:01,15.33650417,0.0001196,53.216,128.5766,92.5815,237.1424,-0.041341,-0.01251939,0.0,0 STARLINK-5453,1 54773U 22175R   23023.33334491 -.01251939  00000-0 -41341-1 0  9999,2 54773  53.2160 128.5766 0001196  92.5815 237.1424 15.33650417  5448,6843.069,93.894,465.752,464.116,0.0
54773.0,STARLINK-5453,PAYLOAD,2023-01-24 14:00:01,15.3039365,0.0001222,53.2149,122.7637,76.3346,311.2699,-0.043416,-0.01175541,0.0,0 STARLINK-5453,1 54773U 22175R   23024.58334491 -.01175541  00000-0 -43416-1 0  9996,2 54773  53.2149 122.7637 0001222  76.3346 311.2699 15.30393650  5636,6852.774,94.093,475.476,473.802,0.0
54773.0,STARLINK-5453,PAYLOAD,2023-01-25 08:00:01,15.28499341,0.0001411,53.2146,119.2871,91.9447,107.415,-0.048239,-0.01243875,0.0,0 STARLINK-5453,1 54773U 22175R   23025.33334491 -.01243875  00000-0 -48239-1 0  9994,2 54773  53.2146 119.2871 0001411  91.9447 107.4150 15.28499341  5749,6858.435,94.21,481.267,479.332,0.0
54773.0,STARLINK-5453,PAYLOAD,2023-01-25 14:00:01,15.27826134,0.000138,53.2142,118.1323,77.3894,58.076,-0.047149,-0.01194977,0.0,0 STARLINK-5453,1 54773U 22175R   23025.58334491 -.01194977  00000-0 -47149-1 0  9998,2 54773  53.2142 118.1323 0001380  77.3894  58.0760 15.27826134  1303,6860.4490000000005,94.252,483.261,481.367,0.0
54773.0,STARLINK-5453,PAYLOAD,2023-01-25 22:00:00,15.26736115,0.0001197,53.2137,116.5914,84.479,84.9171,-0.013983,-0.00355458,0.0,0 STARLINK-5453,1 54773U 22175R   23025.91667824 -.00355458  00000-0 -13983-1 0  9995,2 54773  53.2137 116.5914 0001197  84.4790  84.9171 15.26736115  1307,6863.714,94.319,486.401,484.758,0.0
54773.0,STARLINK-5453,PAYLOAD,2023-01-26 00:00:00,15.26534992,0.0001225,53.2139,116.2063,88.2235,179.4788,-0.002495,-0.00065814,0.0,0 STARLINK-5453,1 54773U 22175R   23026.00001157 -.00065814  00000-0 -24950-2 0  9998,2 54773  53.2139 116.2063 0001225  88.2235 179.4788 15.26534992  5856,6864.316999999999,94.331,487.023,485.341,0.0
54773.0,STARLINK-5453,PAYLOAD,2023-01-26 10:00:00,15.25694458,0.0001181,53.2137,114.2858,87.1969,311.0738,-0.051562,-0.0122215,0.0,0 STARLINK-5453,1 54773U 22175R   23026.41667824 -.01222150  00000-0 -51562-1 0  9999,2 54773  53.2137 114.2858 0001181  87.1969 311.0738 15.25694458  5916,6866.838000000001,94.383,489.514,487.892,0.0
54773.0,STARLINK-5453,PAYLOAD,2023-01-26 14:00:01,15.25251382,0.0001375999999999,53.2136,113.5189,86.4941,147.5651,-0.050681,-0.01188186,0.0,0 STARLINK-5453,1 54773U 22175R   23026.58334491 -.01188186  00000-0 -50681-1 0  9999,2 54773  53.2136 113.5189 0001376  86.4941 147.5651 15.25251382  1302,6868.168000000001,94.411,490.978,489.088,0.0
54773.0,STARLINK-5453,PAYLOAD,2023-01-27 14:00:01,15.22677961,0.0001248,53.213,108.9237,90.4905,232.8917,-0.054527,-0.01183749,0.0,0 STARLINK-5453,1 54773U 22175R   23027.58334491 -.01183749  00000-0 -54527-1 0  9993,2 54773  53.2130 108.9237 0001248  90.4905 232.8917 15.22677961  1306,6875.904,94.57,498.627,496.911,0.0
54773.0,STARLINK-5453,PAYLOAD,2023-01-27 16:00:00,15.22463003,0.0001266,53.2129,108.5417,79.8699,340.5373,-0.0546409999999999,-0.01179064,0.0,0 STARLINK-5453,1 54773U 22175R   23027.66667824 -.01179064  00000-0 -54641-1 0  9993,2 54773  53.2129 108.5417 0001266  79.8699 340.5373 15.22463003  6107,6876.551,94.584,499.287,497.546,0.0
54773.0,STARLINK-5453,PAYLOAD,2023-01-27 22:00:00,15.21836448,0.0001231999999999,53.2127,107.3947,94.7953,256.3013,-0.05785,-0.0122157,0.0,0 STARLINK-5453,1 54773U 22175R   23027.91667824 -.01221570  00000-0 -57850-1 0  9996,2 54773  53.2127 107.3947 0001232  94.7953 256.3013 15.21836448  1300,6878.438,94.623,501.151,499.456,0.0
54773.0,STARLINK-5453,PAYLOAD,2023-01-28 08:00:01,15.20778152,0.0001339,53.2128,105.488,82.6328,31.6522,-0.0605179999999999,-0.01237212,0.0,0 STARLINK-5453,1 54773U 22175R   23028.33334491 -.01237212  00000-0 -60518-1 0  9999,2 54773  53.2128 105.4880 0001339  82.6328  31.6522 15.20778152  6205,6881.629,94.688,504.416,502.573,0.0
54773.0,STARLINK-5453,PAYLOAD,2023-01-28 14:00:01,15.20105971,0.00013,53.2127,104.3466,70.2979,333.1374,-0.058761,-0.01182454,0.0,0 STARLINK-5453,1 54773U 22175R   23028.58334491 -.01182454  00000-0 -58761-1 0  9990,2 54773  53.2127 104.3466 0001300  70.2979 333.1374 15.20105971  1309,6883.658,94.73,506.418,504.628,0.0
54773.0,STARLINK-5453,PAYLOAD,2023-01-28 22:00:00,15.19258237,0.0001279,53.2124,102.8234,79.6393,348.4214,-0.061644,-0.01207862,0.0,0 STARLINK-5453,1 54773U 22175R   23028.91667824 -.01207862  00000-0 -61644-1 0  9991,2 54773  53.2124 102.8234 0001279  79.6393 348.4214 15.19258237  1304,6886.218,94.783,508.964,507.202,0.0
54773.0,STARLINK-5453,PAYLOAD,2023-01-29 16:00:00,15.17325373,0.0001473,53.2121,99.4085,78.9146,130.7815,-0.064051,-0.01188287,0.0,0 STARLINK-5453,1 54773U 22175R   23029.66667824 -.01188287  00000-0 -64051-1 0  9998,2 54773  53.2121  99.4085 0001473  78.9146 130.7815 15.17325373  6410,6892.065,94.904,514.945,512.915,0.0
54773.0,STARLINK-5453,PAYLOAD,2023-01-29 22:00:01,15.16681266,0.0001317,53.2121,98.2703,83.2161,52.6015,-0.065751,-0.01196638,0.0,0 STARLINK-5453,1 54773U 22175R   23029.91668981 -.01196638  00000-0 -65751-1 0  9998,2 54773  53.2121  98.2703 0001317  83.2161  52.6015 15.16681266  1309,6894.016,94.944,516.789,514.973,0.0
54773.0,STARLINK-5453,PAYLOAD,2023-01-30 10:00:00,15.15395008,0.0001251,53.2119,96.0016,86.0233,260.1013,-0.068284,-0.01197662,0.0,0 STARLINK-5453,1 54773U 22175R   23030.41667824 -.01197662  00000-0 -68284-1 0  9992,2 54773  53.2119  96.0016 0001251  86.0233 260.1013 15.15395008  6525,6897.917,95.025,520.645,518.919,0.0
54773.0,STARLINK-5453,PAYLOAD,2023-01-30 14:00:01,15.14958931,0.000148,53.212,95.2466,78.3954,97.3357,-0.067568,-0.01172642,0.0,0 STARLINK-5453,1 54773U 22175R   23030.58334491 -.01172642  00000-0 -67568-1 0  9996,2 54773  53.2120  95.2466 0001480  78.3954  97.3357 15.14958931  1306,6899.24,95.052,522.126,520.084,0.0
54773.0,STARLINK-5453,PAYLOAD,2023-01-31 00:00:00,15.13869176,0.0001343,53.2117,93.3579,97.3133,191.321,-0.067994,-0.01146259,0.0,0 STARLINK-5453,1 54773U 22175R   23031.00001157 -.01146259  00000-0 -67994-1 0  9992,2 54773  53.2117  93.3579 0001343  97.3133 191.3210 15.13869176  1308,6902.551,95.121,525.343,523.489,0.0
54773.0,STARLINK-5453,PAYLOAD,2023-01-31 08:00:01,15.1304958,0.0001294,53.2117,91.8516,95.3484,210.4324,-0.074247,-0.01216724,0.0,0 STARLINK-5453,1 54773U 22175R   23031.33334491 -.01216724  00000-0 -74247-1 0  9992,2 54773  53.2117  91.8516 0001294  95.3484 210.4324 15.13049580  6666,6905.043,95.172,527.802,526.015,0.0
